[{"OBJECT_NAME":"STARLINK-30312","OBJECT_ID":"2023-122K","EPOCH":"2026-03-09T10:33:28.264608","MEAN_MOTION":15.26737903,"ECCENTRICITY":0.00016931,"INCLINATION":43.003,"RA_OF_ASC_NODE":93.4926,"ARG_OF_PERICENTER":243.6138,"MEAN_ANOMALY":116.4539,"EPHEMERIS_TYPE":0,"CLASSIFICATION_TYPE":"U","NORAD_CAT_ID":57641,"ELEMENT_SET_NO":999,"REV_AT_EPOCH":14217,"BSTAR":7.0281586e-5,"MEAN_MOTION_DOT":1.626e-5,"MEAN_MOTION_DDOT":0},{"OBJECT_NAME":"TRANSPORTER-10 OBJECT AG","OBJECT_ID":"2024-043AG","EPOCH":"2026-03-09T22:12:45.387648","MEAN_MOTION":15.30759727,"ECCENTRICITY":0.00093005,"INCLINATION":97.5471,"RA_OF_ASC_NODE":205.7101,"ARG_OF_PERICENTER":226.5958,"MEAN_ANOMALY":133.4509,"EPHEMERIS_TYPE":0,"CLASSIFICATION_TYPE":"U","NORAD_CAT_ID":59128,"ELEMENT_SET_NO":999,"REV_AT_EPOCH":11192,"BSTAR":0.00032170115,"MEAN_MOTION_DOT":9.498e-5,"MEAN_MOTION_DDOT":0}]
